{
  "norad_id": 63077,
  "name": "STARLINK-32839",
  "history": [
    {
      "epoch": "2026-03-28T08:00:01.000224Z",
      "apogee_km": 573.9619543002564,
      "perigee_km": 570.0729258817591,
      "latitude_deg": -37.812246821874375,
      "longitude_deg": -14.536523139424428,
      "height_km": 584.5119547860872,
      "semi_major_axis_km": 6950.154440091007,
      "eccentricity": 0.00027978,
      "inclination_deg": 70.0013,
      "raan_deg": 307.5362,
      "arg_perigee_deg": 272.2112,
      "mean_anomaly_deg": 47.3203,
      "mean_motion_rev_day": 14.98342434
    },
    {
      "epoch": "2026-03-29T04:00:01.999584Z",
      "apogee_km": 573.9548165425913,
      "perigee_km": 569.9918636266748,
      "latitude_deg": 43.24820171415363,
      "longitude_deg": -141.05616871215386,
      "height_km": 579.3475700821775,
      "semi_major_axis_km": 6950.110340084633,
      "eccentricity": 0.0002851,
      "inclination_deg": 70.0009,
      "raan_deg": 305.4351,
      "arg_perigee_deg": 274.1674,
      "mean_anomaly_deg": 219.1605,
      "mean_motion_rev_day": 14.98356695
    },
    {
      "epoch": "2026-03-30T01:50:11.382432Z",
      "apogee_km": 573.6837396886831,
      "perigee_km": 569.6510461916359,
      "latitude_deg": -3.04619209990762e-05,
      "longitude_deg": 88.1155146775083,
      "height_km": 574.5995319184453,
      "semi_major_axis_km": 6949.804392940159,
      "eccentricity": 0.00029013,
      "inclination_deg": 70.0011,
      "raan_deg": 303.1364,
      "arg_perigee_deg": 255.5079,
      "mean_anomaly_deg": 104.5758,
      "mean_motion_rev_day": 14.98455638
    },
    {
      "epoch": "2026-03-30T21:03:48.104640Z",
      "apogee_km": 576.1880817807814,
      "perigee_km": 568.1060134788349,
      "latitude_deg": -5.2092204957743765e-05,
      "longitude_deg": 156.90277919401277,
      "height_km": 573.9556836755769,
      "semi_major_axis_km": 6950.284047629808,
      "eccentricity": 0.00058142,
      "inclination_deg": 70.0023,
      "raan_deg": 301.1163,
      "arg_perigee_deg": 278.8406,
      "mean_anomaly_deg": 81.2094,
      "mean_motion_rev_day": 14.98300523
    }
  ]
}